COMMENT,ORIGINATOR,NORAD_CAT_ID,OBJECT_NAME,OBJECT_TYPE,CLASSIFICATION_TYPE,INTLDES,EPOCH,EPOCH_MICROSECONDS,MEAN_MOTION,ECCENTRICITY,INCLINATION,RA_OF_ASC_NODE,ARG_OF_PERICENTER,MEAN_ANOMALY,EPHEMERIS_TYPE,ELEMENT_SET_NO,REV_AT_EPOCH,BSTAR,MEAN_MOTION_DOT,MEAN_MOTION_DDOT,FILE,TLE_LINE0,TLE_LINE1,TLE_LINE2,OBJECT_ID,OBJECT_NUMBER,SEMIMAJOR_AXIS,PERIOD,APOGEE,PERIGEE,DECAYED,date
GENERATED VIA SPACETRACK.ORG API,18 SPCS,48904,SPACEBEE-111,PAYLOAD,U,21059AB,2023/2/13 15:58,682528,15.24212581,0.0009402,97.5803,180.3867,339.776,20.3103,0,999,9058,0.0016594,0.00040606,0,3790256,0 SPACEBEE-111,1 48904U 21059AB  23044.66537827  .00040606  00000-0  16594-2 0  9992,2 48904  97.5803 180.3867 0009402 339.7760  20.3103 15.24212581 90584,2021-059AB,48904,6871.288,94.475,499.613,486.693,0,2023/4/3
GENERATED VIA SPACETRACK.ORG API,18 SPCS,48904,SPACEBEE-111,PAYLOAD,U,21059AB,2023/2/14 7:43,869888,15.24265339,0.0009463,97.5805,181.0507,337.4395,22.6425,0,999,9068,0.0016694,0.00040918,0,3791349,0 SPACEBEE-111,1 48904U 21059AB  23045.32186192  .00040918  00000-0  16694-2 0  9998,2 48904  97.5805 181.0507 0009463 337.4395  22.6425 15.24265339 90683,2021-059AB,48904,6871.129,94.472,499.497,486.492,0,2023/4/4
GENERATED VIA SPACETRACK.ORG API,18 SPCS,48904,SPACEBEE-111,PAYLOAD,U,21059AB,2023/2/15 4:12,245408,15.24330663,0.0009406,97.5805,181.9141,334.8708,25.207,0,999,9081,0.001575,0.00038663,0,3792303,0 SPACEBEE-111,1 48904U 21059AB  23046.17525747  .00038663  00000-0  15750-2 0  9991,2 48904  97.5805 181.9141 0009406 334.8708  25.2070 15.24330663 90815,2021-059AB,48904,6870.933,94.468,499.261,486.335,0,2023/4/5
GENERATED VIA SPACETRACK.ORG API,18 SPCS,48904,SPACEBEE-111,PAYLOAD,U,21059AB,2023/2/15 7:21,527744,15.24344384,0.0009408,97.5804,182.0469,334.4709,25.6063,0,999,9083,0.0016921,0.00041576,0,3793706,0 SPACEBEE-111,1 48904U 21059AB  23046.30654546  .00041576  00000-0  16921-2 0  9994,2 48904  97.5804 182.0469 0009408 334.4709  25.6063 15.24344384 90831,2021-059AB,48904,6870.892,94.467,499.221,486.293,0,2023/4/6
GENERATED VIA SPACETRACK.ORG API,18 SPCS,48904,SPACEBEE-111,PAYLOAD,U,21059AB,2023/2/15 19:57,792224,15.24397637,0.0009381,97.5805,182.5783,332.7454,27.329,0,999,9091,0.0020343,0.00050135,0,3794101,0 SPACEBEE-111,1 48904U 21059AB  23046.83168741  .00050135  00000-0  20343-2 0  9993,2 48904  97.5805 182.5783 0009381 332.7454  27.3290 15.24397637 90913,2021-059AB,48904,6870.732,94.464,499.042,486.151,0,2023/4/7
GENERATED VIA SPACETRACK.ORG API,18 SPCS,48904,SPACEBEE-111,PAYLOAD,U,21059AB,2023/2/15 21:32,218688,15.24402748,0.0009372,97.5804,182.6447,332.5444,27.5296,0,999,9092,0.0019767,0.00048711,0,3795153,0 SPACEBEE-111,1 48904U 21059AB  23046.89732892  .00048711  00000-0  19767-2 0  9998,2 48904  97.5804 182.6447 0009372 332.5444  27.5296 15.24402748 90926,2021-059AB,48904,6870.716,94.463,499.021,486.142,0,2023/4/8
GENERATED VIA SPACETRACK.ORG API,18 SPCS,48904,SPACEBEE-111,PAYLOAD,U,21059AB,2023/2/16 8:33,476448,15.24447392,0.0009359,97.5803,183.1098,330.8338,29.2375,0,999,9099,0.001932,0.00047665,0,3798293,0 SPACEBEE-111,1 48904U 21059AB  23047.35681107  .00047665  00000-0  19320-2 0  9994,2 48904  97.5803 183.1098 0009359 330.8338  29.2375 15.24447392 90999,2021-059AB,48904,6870.582,94.46,498.877,486.017,0,2023/4/9
GENERATED VIA SPACETRACK.ORG API,18 SPCS,48904,SPACEBEE-111,PAYLOAD,U,21059AB,2023/2/16 14:51,273376,15.24471885,0.000934,97.5803,183.3755,329.786,30.2837,0,999,9103,0.0019191,0.00047379,0,3799178,0 SPACEBEE-111,1 48904U 21059AB  23047.61936659  .00047379  00000-0  19191-2 0  9996,2 48904  97.5803 183.3755 0009340 329.7860  30.2837 15.24471885 91033,2021-059AB,48904,6870.509,94.459,498.791,485.957,0,2023/4/10
GENERATED VIA SPACETRACK.ORG API,18 SPCS,48904,SPACEBEE-111,PAYLOAD,U,21059AB,2023/2/16 22:44,695840,15.24502759,0.0009357,97.5804,183.7076,328.3666,31.7007,0,999,9108,0.0018257,0.00045097,0,3799953,0 SPACEBEE-111,1 48904U 21059AB  23047.94755435  .00045097  00000-0  18257-2 0  9990,2 48904  97.5804 183.7076 0009357 328.3666  31.7007 15.24502759 91086,2021-059AB,48904,6870.416,94.457,498.71,485.852,0,2023/4/11
GENERATED VIA SPACETRACK.ORG API,18 SPCS,48904,SPACEBEE-111,PAYLOAD,U,21059AB,2023/2/17 8:11,561536,15.24531861,0.0009387,97.5805,184.1062,326.7258,33.3388,0,999,9114,0.0015223,0.00037585,0,3802730,0 SPACEBEE-111,1 48904U 21059AB  23048.34137224  .00037585  00000-0  15223-2 0  9998,2 48904  97.5805 184.1062 0009387 326.7258  33.3388 15.24531861 91142,2021-059AB,48904,6870.329,94.455,498.643,485.744,0,2023/4/12
GENERATED VIA SPACETRACK.ORG API,18 SPCS,48904,SPACEBEE-111,PAYLOAD,U,21059AB,2023/2/17 8:11,561536,15.24531861,0.0009387,97.5805,184.1062,326.7258,33.3388,0,999,9114,0.0015223,0.00037585,0,3803069,0 SPACEBEE-111,1 48904U 21059AB  23048.34137224  .00037585  00000-0  15223-2 0  9998,2 48904  97.5805 184.1062 0009387 326.7258  33.3388 15.24531861 91142,2021-059AB,48904,6870.329,94.455,498.643,485.744,0,2023/4/13
GENERATED VIA SPACETRACK.ORG API,18 SPCS,48904,SPACEBEE-111,PAYLOAD,U,21059AB,2023/2/17 20:47,451072,15.24566355,0.0009412,97.5807,184.6376,324.808,35.2534,0,999,9122,0.0012663,0.00031258,0,3804075,0 SPACEBEE-111,1 48904U 21059AB  23048.86645198  .00031258  00000-0  12663-2 0  9995,2 48904  97.5807 184.6376 0009412 324.8080  35.2534 15.24566355 91227,2021-059AB,48904,6870.225,94.453,498.556,485.624,0,2023/4/14
GENERATED VIA SPACETRACK.ORG API,18 SPCS,48904,SPACEBEE-111,PAYLOAD,U,21059AB,2023/2/18 7:49,700736,15.24593112,0.0009403,97.5808,185.1028,322.9943,37.0645,0,999,9129,0.0011767,0.00029056,0,3805837,0 SPACEBEE-111,1 48904U 21059AB  23049.32588774  .00029056  00000-0  11767-2 0  9990,2 48904  97.5808 185.1028 0009403 322.9943  37.0645 15.24593112 91296,2021-059AB,48904,6870.145,94.451,498.47,485.55,0,2023/4/15
GENERATED VIA SPACETRACK.ORG API,18 SPCS,48904,SPACEBEE-111,PAYLOAD,U,21059AB,2023/2/18 7:49,700736,15.24593112,0.0009403,97.5808,185.1028,322.9943,37.0645,0,999,9129,0.0011767,0.00029056,0,3807124,0 SPACEBEE-111,1 48904U 21059AB  23049.32588774  .00029056  00000-0  11767-2 0  9990,2 48904  97.5808 185.1028 0009403 322.9943  37.0645 15.24593112 91296,2021-059AB,48904,6870.145,94.451,498.47,485.55,0,2023/4/16
GENERATED VIA SPACETRACK.ORG API,18 SPCS,48904,SPACEBEE-111,PAYLOAD,U,21059AB,2023/2/19 15:19,784992,15.24669788,0.0009403,97.5815,186.431,318.7309,41.3217,0,999,9149,0.0010891,0.00026941,0,3811610,0 SPACEBEE-111,1 48904U 21059AB  23050.63851603  .00026941  00000-0  10891-2 0  9997,2 48904  97.5815 186.4310 0009403 318.7309  41.3217 15.24669788 91499,2021-059AB,48904,6869.914,94.447,498.239,485.319,0,2023/4/17
GENERATED VIA SPACETRACK.ORG API,18 SPCS,48904,SPACEBEE-111,PAYLOAD,U,21059AB,2023/2/19 20:02,961760,15.24682269,0.0009388,97.5814,186.6301,318.1901,41.8618,0,999,9152,0.0010953,0.00027106,0,3812169,0 SPACEBEE-111,1 48904U 21059AB  23050.83540465  .00027106  00000-0  10953-2 0  9993,2 48904  97.5814 186.6301 0009388 318.1901  41.8618 15.24682269 91527,2021-059AB,48904,6869.877,94.446,498.191,485.292,0,2023/4/18
GENERATED VIA SPACETRACK.ORG API,18 SPCS,48904,SPACEBEE-111,PAYLOAD,U,21059AB,2023/2/20 8:39,418976,15.24713811,0.0009393,97.5815,187.1618,316.2904,43.7588,0,999,9160,0.0011469,0.00028418,0,3815761,0 SPACEBEE-111,1 48904U 21059AB  23051.36043309  .00028418  00000-0  11469-2 0  9997,2 48904  97.5815 187.1618 0009393 316.2904  43.7588 15.24713811 91607,2021-059AB,48904,6869.782,94.444,498.1,485.194,0,2023/4/19
GENERATED VIA SPACETRACK.ORG API,18 SPCS,48904,SPACEBEE-111,PAYLOAD,U,21059AB,2023/2/21 8:16,583296,15.24774077,0.0009427,97.5821,188.1586,312.5453,47.4987,0,999,9175,0.0012561,0.00031198,0,3818814,0 SPACEBEE-111,1 48904U 21059AB  23052.34483314  .00031198  00000-0  12561-2 0  9993,2 48904  97.5821 188.1586 0009427 312.5453  47.4987 15.24774077 91756,2021-059AB,48904,6869.601,94.44,497.942,484.99,0,2023/4/20
GENERATED VIA SPACETRACK.ORG API,18 SPCS,48904,SPACEBEE-111,PAYLOAD,U,21059AB,2023/2/21 14:34,558240,15.24792204,0.0009421,97.5822,188.4242,311.3912,48.6514,0,999,9179,0.0013334,0.0003315,0,3819803,0 SPACEBEE-111,1 48904U 21059AB  23052.60733285  .00033150  00000-0  13334-2 0  9996,2 48904  97.5822 188.4242 0009421 311.3912  48.6514 15.24792204 91795,2021-059AB,48904,6869.546,94.439,497.883,484.94,0,2023/4/21
GENERATED VIA SPACETRACK.ORG API,18 SPCS,48904,SPACEBEE-111,PAYLOAD,U,21059AB,2023/2/22 7:54,191392,15.24837735,0.0009429,97.5821,189.1549,308.804,51.2354,0,999,9190,0.0012072,0.00030033,0,3824148,0 SPACEBEE-111,1 48904U 21059AB  23053.32919203  .00030033  00000-0  12072-2 0  9997,2 48904  97.5821 189.1549 0009429 308.8040  51.2354 15.24837735 91907,2021-059AB,48904,6869.41,94.436,497.752,484.798,0,2023/4/22
GENERATED VIA SPACETRACK.ORG API,18 SPCS,48904,SPACEBEE-111,PAYLOAD,U,21059AB,2023/2/22 22:04,609760,15.24878851,0.0009385,97.5824,189.7529,306.8763,53.1613,0,999,9199,0.0012916,0.00032187,0,3825529,0 SPACEBEE-111,1 48904U 21059AB  23053.91978715  .00032187  00000-0  12916-2 0  9994,2 48904  97.5824 189.7529 0009385 306.8763  53.1613 15.24878851 91997,2021-059AB,48904,6869.286,94.434,497.598,484.704,0,2023/4/23
GENERATED VIA SPACETRACK.ORG API,18 SPCS,48904,SPACEBEE-111,PAYLOAD,U,21059AB,2023/2/23 2:47,390656,15.24895109,0.0009368,97.5823,189.9522,306.2287,53.8084,0,999,9202,0.0014157,0.00035318,0,3826277,0 SPACEBEE-111,1 48904U 21059AB  23054.11664804  .00035318  00000-0  14157-2 0  9996,2 48904  97.5823 189.9522 0009368 306.2287  53.8084 15.24895109 92026,2021-059AB,48904,6869.237,94.433,497.538,484.667,0,2023/4/24
GENERATED VIA SPACETRACK.ORG API,18 SPCS,48904,SPACEBEE-111,PAYLOAD,U,21059AB,2023/2/23 7:31,989248,15.24915207,0.0009391,97.5824,190.1516,305.5448,54.4913,0,999,9205,0.0016089,0.00040199,0,3828819,0 SPACEBEE-111,1 48904U 21059AB  23054.31350682  .00040199  00000-0  16089-2 0  9993,2 48904  97.5824 190.1516 0009391 305.5448  54.4913 15.24915207 92054,2021-059AB,48904,6869.177,94.431,497.493,484.591,0,2023/4/25
